[{"OBJECT_NAME":"STARLINK-3925","OBJECT_ID":"2022-049AZ","EPOCH":"2026-03-09T22:11:12.286464","MEAN_MOTION":15.08844188,"ECCENTRICITY":0.00015747,"INCLINATION":53.22,"RA_OF_ASC_NODE":38.0652,"ARG_OF_PERICENTER":95.9411,"MEAN_ANOMALY":264.1761,"EPHEMERIS_TYPE":0,"CLASSIFICATION_TYPE":"U","NORAD_CAT_ID":52498,"ELEMENT_SET_NO":999,"REV_AT_EPOCH":21256,"BSTAR":-6.3147914e-5,"MEAN_MOTION_DOT":-1.293e-5,"MEAN_MOTION_DDOT":0},{"OBJECT_NAME":"SL-8 DEB","OBJECT_ID":"1976-098E","EPOCH":"2026-03-09T08:07:12.416160","MEAN_MOTION":15.06605169,"ECCENTRICITY":0.00102283,"INCLINATION":74.028,"RA_OF_ASC_NODE":26.283,"ARG_OF_PERICENTER":218.296,"MEAN_ANOMALY":294.2383,"EPHEMERIS_TYPE":0,"CLASSIFICATION_TYPE":"U","NORAD_CAT_ID":18504,"ELEMENT_SET_NO":999,"REV_AT_EPOCH":18055,"BSTAR":0.0011587434,"MEAN_MOTION_DOT":0.00017191,"MEAN_MOTION_DDOT":0}]
